GJZ 01                  
1 62290U 24238A   26175.25146706 -.00000059  00000+0  62258-4 0  9991
2 62290  59.9136 265.2769 0012896 250.2239 109.7378 13.75221514 76571
GJZ 02                  
1 62291U 24238B   26175.32479108 -.00000080  00000+0  40342-4 0  9999
2 62291  59.9164 229.1765 0006781  91.8597 268.3187 13.75206209 77261
GJZ 03                  
1 62292U 24238C   26175.32378782 -.00000062  00000+0  59712-4 0  9997
2 62292  59.9129 249.4148 0018900   6.9619 353.1648 13.75208158 76877
GJZ 04                  
1 62293U 24238D   26175.32813846 -.00000073  00000+0  48330-4 0  9999
2 62293  59.9130 249.4400 0014899  19.3640 340.7931 13.75200801 76892
GJZ 05                  
1 62294U 24238E   26175.32609414 -.00000089  00000+0  31613-4 0  9997
2 62294  59.9114 249.3701 0016492  17.6505 342.5072 13.75192576 76895
STARLINK-32648          
1 62301U 24239A   26174.92998339  .00041050  00000+0  12184-2 0  9991
2 62301  53.1597  47.3934 0001057  77.2973 282.8147 15.34428158 85839
STARLINK-32594          
1 62302U 24239B   26174.95319390  .00037512  00000+0  11150-2 0  9999
2 62302  53.1574  57.3326 0000897 105.3229 254.7873 15.34423143 85696
STARLINK-32621          
1 62303U 24239C   26175.26182210  .00093587  00000+0  28282-2 0  9992
2 62303  53.1586  45.9061 0001001  75.1053 285.0060 15.33474287 85886
STARLINK-32597          
1 62304U 24239D   26174.94892077  .00036767  00000+0  10937-2 0  9991
2 62304  53.1599  47.5098 0001275  92.2299 267.8850 15.34407762 85839
STARLINK-32649          
1 62305U 24239E   26174.99785183  .00055594  00000+0  16413-2 0  9990
2 62305  53.1591  59.1817 0000860 125.5641 234.5442 15.34460016 85671
STARLINK-32633          
1 62306U 24239F   26174.97271022  .00034817  00000+0  10366-2 0  9997
2 62306  53.1584  59.7291 0001073  97.7556 262.3569 15.34407815 85664
STARLINK-32646          
1 62307U 24239G   26175.12938842  .00020832  00000+0  71303-3 0  9997
2 62307  53.1577  46.5019 0001110  95.8965 264.2163 15.30221490 85866
STARLINK-32706          
1 62308U 24239H   26174.98323065  .00032023  00000+0  95434-3 0  9992
2 62308  53.1579  59.7965 0001288  95.0299 265.0850 15.34417275 85665
STARLINK-32678          
1 62309U 24239J   26174.97097725  .00019060  00000+0  56637-3 0  9991
2 62309  53.1590  46.9329 0001739 186.0426 174.0556 15.34813227 85844
STARLINK-32696          
1 62310U 24239K   26174.40323111  .00027138  00000+0  81132-3 0  9995
2 62310  53.1590  61.8697 0001293  80.6997 279.4152 15.34403883 85583
STARLINK-32700          
1 62311U 24239L   26174.94260097  .00028722  00000+0  85859-3 0  9998
2 62311  53.1646  47.4686 0001096 108.3122 251.8000 15.34376359 85823
STARLINK-32698          
1 62312U 24239M   26174.93904642  .00020890  00000+0  62767-3 0  9990
2 62312  53.1605  59.5206 0001017 105.9552 254.1563 15.34400263 85668
STARLINK-32634          
1 62313U 24239N   26174.93661550  .00021667  00000+0  74145-3 0  9995
2 62313  53.1574  47.4334 0001333  99.2293 260.8858 15.30203807 85831
STARLINK-32651          
1 62314U 24239P   26174.97902152  .00034170  00000+0  10176-2 0  9992
2 62314  53.1592  59.7652 0000918  94.3484 265.7624 15.34407538 85664
STARLINK-32627          
1 62315U 24239Q   26174.97691372  .00031561  00000+0  94126-3 0  9991
2 62315  53.1578  59.7116 0000958  67.4005 292.7099 15.34401529 85668
STARLINK-32596          
1 62316U 24239R   26174.99369830 -.00145520  00000+0 -44090-2 0  9992
2 62316  53.1589  59.1530 0002470 102.0901 258.0379 15.34183923 85679
STARLINK-32519          
1 62317U 24239S   26174.91020347  .00017397  00000+0  57057-3 0  9998
2 62317  53.1609  47.2639 0001194  82.3309 277.7828 15.31727519 85832
STARLINK-32527          
1 62319U 24239U   26174.91487416  .00010538  00000+0  35081-3 0  9997
2 62319  53.1608  47.2929 0001372  88.7162 271.3997 15.31705349 85834
STARLINK-32481          
1 62320U 24239V   26174.93028067  .00016860  00000+0  57993-3 0  9994
2 62320  53.1592  47.3902 0001051  93.7478 266.3643 15.30208548 85830
STARLINK-32645          
1 62321U 24239W   26174.93450387  .00011050  00000+0  38460-3 0  9993
2 62321  53.1595  47.4179 0000442  77.1317 282.9733 15.30204164 85836
STARLINK-32654          
1 62322U 24239X   26174.99155791  .00034483  00000+0  10269-2 0  9992
2 62322  53.1582  59.1359 0000939  84.5433 275.5677 15.34403625 85679
HULIANWANG DIGUI-01     
1 62323U 24240A   26175.25094916  .00000081  00000+0  15501-3 0  9998
2 62323  86.4998 340.8541 0001649 103.5022 256.6296 13.24410784 73572
HULIANWANG DIGUI-02     
1 62324U 24240B   26175.25840908  .00000069  00000+0  12586-3 0  9995
2 62324  86.5028 341.0128 0001627 102.9130 257.2186 13.24410810 73587
HULIANWANG DIGUI-03     
1 62325U 24240C   26175.24335244  .00000059  00000+0  10438-3 0  9990
2 62325  86.4981 340.7576 0001716 103.8167 256.3158 13.24409376 73570
HULIANWANG DIGUI-04     
1 62326U 24240D   26175.23581911  .00000056  00000+0  96147-4 0  9993
2 62326  86.4990 340.8016 0001789 107.2064 252.9266 13.24409660 73573
