OBJECT_NAME,OBJECT_ID,EPOCH,MEAN_MOTION,ECCENTRICITY,INCLINATION,RA_OF_ASC_NODE,ARG_OF_PERICENTER,MEAN_ANOMALY,EPHEMERIS_TYPE,CLASSIFICATION_TYPE,NORAD_CAT_ID,ELEMENT_SET_NO,REV_AT_EPOCH,BSTAR,MEAN_MOTION_DOT,MEAN_MOTION_DDOT
GJZ 01,2024-238A,2026-06-24T06:02:06.753984,13.75221514,.00128965,59.9136,265.2769,250.2239,109.7378,0,U,62290,999,7657,.62258403E-4,-.59E-6,0
GJZ 02,2024-238B,2026-06-24T07:47:41.949312,13.75206209,.00067813,59.9164,229.1765,91.8597,268.3187,0,U,62291,999,7726,.40342217E-4,-.8E-6,0
GJZ 03,2024-238C,2026-06-24T07:46:15.267648,13.75208158,.00189006,59.9129,249.4148,6.9619,353.1648,0,U,62292,999,7687,.59711864E-4,-.62E-6,0
GJZ 04,2024-238D,2026-06-24T07:52:31.162944,13.75200801,.00148994,59.9130,249.4400,19.3640,340.7931,0,U,62293,999,7689,.48329589E-4,-.73E-6,0
GJZ 05,2024-238E,2026-06-24T07:49:34.533696,13.75192576,.00164921,59.9114,249.3701,17.6505,342.5072,0,U,62294,999,7689,.31612591E-4,-.89E-6,0
STARLINK-32648,2024-239A,2026-06-23T22:19:10.564896,15.34428158,.00010575,53.1597,47.3934,77.2973,282.8147,0,U,62301,999,8583,.12183558E-2,.4105E-3,0
STARLINK-32594,2024-239B,2026-06-23T22:52:35.952960,15.34423143,.00008979,53.1574,57.3326,105.3229,254.7873,0,U,62302,999,8569,.11149896E-2,.37512E-3,0
STARLINK-32621,2024-239C,2026-06-24T06:17:01.429440,15.33474287,.0001001,53.1586,45.9061,75.1053,285.0060,0,U,62303,999,8588,.28282305E-2,.93587E-3,0
STARLINK-32597,2024-239D,2026-06-23T22:46:26.754528,15.34407762,.00012759,53.1599,47.5098,92.2299,267.8850,0,U,62304,999,8583,.10937046E-2,.36767E-3,0
STARLINK-32649,2024-239E,2026-06-23T23:56:54.398112,15.34460016,.00008607,53.1591,59.1817,125.5641,234.5442,0,U,62305,999,8567,.16412566E-2,.55594E-3,0
STARLINK-32633,2024-239F,2026-06-23T23:20:42.163008,15.34407815,.00010738,53.1584,59.7291,97.7556,262.3569,0,U,62306,999,8566,.10365761E-2,.34817E-3,0
STARLINK-32646,2024-239G,2026-06-24T03:06:19.159488,15.30221490,.00011108,53.1577,46.5019,95.8965,264.2163,0,U,62307,999,8586,.71303072E-3,.20832E-3,0
STARLINK-32706,2024-239H,2026-06-23T23:35:51.128160,15.34417275,.00012886,53.1579,59.7965,95.0299,265.0850,0,U,62308,999,8566,.95434232E-3,.32023E-3,0
STARLINK-32678,2024-239J,2026-06-23T23:18:12.434400,15.34813227,.00017394,53.1590,46.9329,186.0426,174.0556,0,U,62309,999,8584,.56636854E-3,.1906E-3,0
STARLINK-32696,2024-239K,2026-06-23T09:40:39.167904,15.34403883,.00012937,53.1590,61.8697,80.6997,279.4152,0,U,62310,999,8558,.81132123E-3,.27138E-3,0
STARLINK-32700,2024-239L,2026-06-23T22:37:20.723808,15.34376359,.00010968,53.1646,47.4686,108.3122,251.8000,0,U,62311,999,8582,.8585885E-3,.28722E-3,0
STARLINK-32698,2024-239M,2026-06-23T22:32:13.610688,15.34400263,.00010173,53.1605,59.5206,105.9552,254.1563,0,U,62312,999,8566,.62766929E-3,.2089E-3,0
STARLINK-32634,2024-239N,2026-06-23T22:28:43.579200,15.30203807,.00013337,53.1574,47.4334,99.2293,260.8858,0,U,62313,999,8583,.741446E-3,.21667E-3,0
STARLINK-32651,2024-239P,2026-06-23T23:29:47.459328,15.34407538,.00009189,53.1592,59.7652,94.3484,265.7624,0,U,62314,999,8566,.10175915E-2,.3417E-3,0
STARLINK-32627,2024-239Q,2026-06-23T23:26:45.345408,15.34401529,.00009588,53.1578,59.7116,67.4005,292.7099,0,U,62315,999,8566,.94126282E-3,.31561E-3,0
STARLINK-32596,2024-239R,2026-06-23T23:50:55.533120,15.34183923,.00024704,53.1589,59.1530,102.0901,258.0379,0,U,62316,999,8567,-.44089917E-2,-.14552E-2,0
STARLINK-32519,2024-239S,2026-06-23T21:50:41.579808,15.31727519,.00011947,53.1609,47.2639,82.3309,277.7828,0,U,62317,999,8583,.57056678E-3,.17397E-3,0
STARLINK-32527,2024-239U,2026-06-23T21:57:25.127424,15.31705349,.00013727,53.1608,47.2929,88.7162,271.3997,0,U,62319,999,8583,.3508112E-3,.10538E-3,0
STARLINK-32481,2024-239V,2026-06-23T22:19:36.249888,15.30208548,.00010515,53.1592,47.3902,93.7478,266.3643,0,U,62320,999,8583,.57992683E-3,.1686E-3,0
STARLINK-32645,2024-239W,2026-06-23T22:25:41.134368,15.30204164,.00004426,53.1595,47.4179,77.1317,282.9733,0,U,62321,999,8583,.38460349E-3,.1105E-3,0
STARLINK-32654,2024-239X,2026-06-23T23:47:50.603424,15.34403625,.00009392,53.1582,59.1359,84.5433,275.5677,0,U,62322,999,8567,.10268991E-2,.34483E-3,0
HULIANWANG DIGUI-01,2024-240A,2026-06-24T06:01:22.007424,13.24410784,.00016496,86.4998,340.8541,103.5022,256.6296,0,U,62323,999,7357,.15501375E-3,.81E-6,0
HULIANWANG DIGUI-02,2024-240B,2026-06-24T06:12:06.544512,13.24410810,.00016275,86.5028,341.0128,102.9130,257.2186,0,U,62324,999,7358,.12585741E-3,.69E-6,0
HULIANWANG DIGUI-03,2024-240C,2026-06-24T05:50:25.650816,13.24409376,.00017167,86.4981,340.7576,103.8167,256.3158,0,U,62325,999,7357,.10438335E-3,.59E-6,0
HULIANWANG DIGUI-04,2024-240D,2026-06-24T05:39:34.771104,13.24409660,.00017895,86.4990,340.8016,107.2064,252.9266,0,U,62326,999,7357,.96147366E-4,.56E-6,0
